[{"OBJECT_NAME":"STARLINK-36996","OBJECT_ID":"2026-041AA","EPOCH":"2026-03-23T23:51:30.647808","MEAN_MOTION":15.80881413,"ECCENTRICITY":0.00011931,"INCLINATION":53.1595,"RA_OF_ASC_NODE":350.2425,"ARG_OF_PERICENTER":54.0791,"MEAN_ANOMALY":306.0343,"EPHEMERIS_TYPE":0,"CLASSIFICATION_TYPE":"U","NORAD_CAT_ID":68064,"ELEMENT_SET_NO":999,"REV_AT_EPOCH":348,"BSTAR":0.0011906536,"MEAN_MOTION_DOT":0.00241067,"MEAN_MOTION_DDOT":0},{"OBJECT_NAME":"STARLINK-36836","OBJECT_ID":"2026-041AB","EPOCH":"2026-03-24T05:53:28.741056","MEAN_MOTION":15.81069877,"ECCENTRICITY":6.069e-5,"INCLINATION":53.1587,"RA_OF_ASC_NODE":348.9642,"ARG_OF_PERICENTER":96.3547,"MEAN_ANOMALY":263.7545,"EPHEMERIS_TYPE":0,"CLASSIFICATION_TYPE":"U","NORAD_CAT_ID":68065,"ELEMENT_SET_NO":999,"REV_AT_EPOCH":352,"BSTAR":0.0021662702,"MEAN_MOTION_DOT":0.00454261,"MEAN_MOTION_DDOT":0},{"OBJECT_NAME":"STARLINK-36976","OBJECT_ID":"2026-041AC","EPOCH":"2026-03-24T05:00:20.662272","MEAN_MOTION":15.75341442,"ECCENTRICITY":9.713e-5,"INCLINATION":53.1584,"RA_OF_ASC_NODE":349.4562,"ARG_OF_PERICENTER":95.2277,"MEAN_ANOMALY":264.8854,"EPHEMERIS_TYPE":0,"CLASSIFICATION_TYPE":"U","NORAD_CAT_ID":68066,"ELEMENT_SET_NO":999,"REV_AT_EPOCH":351,"BSTAR":0.0015685574,"MEAN_MOTION_DOT":0.00248094,"MEAN_MOTION_DDOT":0},{"OBJECT_NAME":"STARLINK-36929","OBJECT_ID":"2026-041AD","EPOCH":"2026-03-24T00:32:18.498048","MEAN_MOTION":15.7530283,"ECCENTRICITY":0.00010665,"INCLINATION":53.159,"RA_OF_ASC_NODE":350.4309,"ARG_OF_PERICENTER":101.3693,"MEAN_ANOMALY":258.7448,"EPHEMERIS_TYPE":0,"CLASSIFICATION_TYPE":"U","NORAD_CAT_ID":68067,"ELEMENT_SET_NO":999,"REV_AT_EPOCH":348,"BSTAR":0.0012435937,"MEAN_MOTION_DOT":0.00194988,"MEAN_MOTION_DDOT":0},{"OBJECT_NAME":"STARLINK-36990","OBJECT_ID":"2026-041AE","EPOCH":"2026-03-23T23:47:11.342400","MEAN_MOTION":15.80910064,"ECCENTRICITY":7.846e-5,"INCLINATION":53.1592,"RA_OF_ASC_NODE":350.2215,"ARG_OF_PERICENTER":144.9843,"MEAN_ANOMALY":215.1231,"EPHEMERIS_TYPE":0,"CLASSIFICATION_TYPE":"U","NORAD_CAT_ID":68068,"ELEMENT_SET_NO":999,"REV_AT_EPOCH":348,"BSTAR":0.00163219,"MEAN_MOTION_DOT":0.0033483,"MEAN_MOTION_DDOT":0},{"OBJECT_NAME":"STARLINK-36766","OBJECT_ID":"2026-042A","EPOCH":"2026-03-24T07:11:54.123936","MEAN_MOTION":15.81025834,"ECCENTRICITY":0.00010829,"INCLINATION":53.158,"RA_OF_ASC_NODE":121.5577,"ARG_OF_PERICENTER":119.341,"MEAN_ANOMALY":240.7721,"EPHEMERIS_TYPE":0,"CLASSIFICATION_TYPE":"U","NORAD_CAT_ID":68069,"ELEMENT_SET_NO":999,"REV_AT_EPOCH":439,"BSTAR":0.0014788806,"MEAN_MOTION_DOT":0.00303823,"MEAN_MOTION_DDOT":0},{"OBJECT_NAME":"STARLINK-36823","OBJECT_ID":"2026-042B","EPOCH":"2026-03-24T05:39:47.172096","MEAN_MOTION":15.81034151,"ECCENTRICITY":0.00012647,"INCLINATION":53.1576,"RA_OF_ASC_NODE":121.8686,"ARG_OF_PERICENTER":61.5157,"MEAN_ANOMALY":298.5993,"EPHEMERIS_TYPE":0,"CLASSIFICATION_TYPE":"U","NORAD_CAT_ID":68070,"ELEMENT_SET_NO":999,"REV_AT_EPOCH":438,"BSTAR":0.0014960374,"MEAN_MOTION_DOT":0.00307609,"MEAN_MOTION_DDOT":0},{"OBJECT_NAME":"STARLINK-36970","OBJECT_ID":"2026-042C","EPOCH":"2026-03-24T05:37:38.009280","MEAN_MOTION":15.80992708,"ECCENTRICITY":0.00013312,"INCLINATION":53.1579,"RA_OF_ASC_NODE":121.8589,"ARG_OF_PERICENTER":123.1245,"MEAN_ANOMALY":236.9905,"EPHEMERIS_TYPE":0,"CLASSIFICATION_TYPE":"U","NORAD_CAT_ID":68071,"ELEMENT_SET_NO":999,"REV_AT_EPOCH":438,"BSTAR":0.0012979624,"MEAN_MOTION_DOT":0.0026495,"MEAN_MOTION_DDOT":0},{"OBJECT_NAME":"STARLINK-36972","OBJECT_ID":"2026-042D","EPOCH":"2026-03-24T05:38:41.728416","MEAN_MOTION":15.80939477,"ECCENTRICITY":0.00019606,"INCLINATION":53.1575,"RA_OF_ASC_NODE":121.8642,"ARG_OF_PERICENTER":61.6831,"MEAN_ANOMALY":298.4389,"EPHEMERIS_TYPE":0,"CLASSIFICATION_TYPE":"U","NORAD_CAT_ID":68072,"ELEMENT_SET_NO":999,"REV_AT_EPOCH":438,"BSTAR":0.00050528689,"MEAN_MOTION_DOT":0.00100509,"MEAN_MOTION_DDOT":0},{"OBJECT_NAME":"STARLINK-37074","OBJECT_ID":"2026-042E","EPOCH":"2026-03-24T05:36:32.828256","MEAN_MOTION":15.8096426,"ECCENTRICITY":0.00011338,"INCLINATION":53.1574,"RA_OF_ASC_NODE":121.854,"ARG_OF_PERICENTER":140.2728,"MEAN_ANOMALY":219.8378,"EPHEMERIS_TYPE":0,"CLASSIFICATION_TYPE":"U","NORAD_CAT_ID":68073,"ELEMENT_SET_NO":999,"REV_AT_EPOCH":438,"BSTAR":0.00092924715,"MEAN_MOTION_DOT":0.00187529,"MEAN_MOTION_DDOT":0},{"OBJECT_NAME":"STARLINK-37045","OBJECT_ID":"2026-042F","EPOCH":"2026-03-24T06:00:02.000160","MEAN_MOTION":15.75341696,"ECCENTRICITY":0.0001678,"INCLINATION":53.1593,"RA_OF_ASC_NODE":121.9,"ARG_OF_PERICENTER":89.8469,"MEAN_ANOMALY":300.1332,"EPHEMERIS_TYPE":0,"CLASSIFICATION_TYPE":"U","NORAD_CAT_ID":68074,"ELEMENT_SET_NO":999,"REV_AT_EPOCH":439,"BSTAR":-0.00095736919,"MEAN_MOTION_DOT":-0.00145559,"MEAN_MOTION_DDOT":0},{"OBJECT_NAME":"STARLINK-37026","OBJECT_ID":"2026-042G","EPOCH":"2026-03-24T07:37:20.747136","MEAN_MOTION":15.75286692,"ECCENTRICITY":8.686e-5,"INCLINATION":53.1573,"RA_OF_ASC_NODE":121.6736,"ARG_OF_PERICENTER":105.3332,"MEAN_ANOMALY":254.7784,"EPHEMERIS_TYPE":0,"CLASSIFICATION_TYPE":"U","NORAD_CAT_ID":68075,"ELEMENT_SET_NO":999,"REV_AT_EPOCH":439,"BSTAR":0.0006020707,"MEAN_MOTION_DOT":0.00092862,"MEAN_MOTION_DDOT":0},{"OBJECT_NAME":"STARLINK-37023","OBJECT_ID":"2026-042H","EPOCH":"2026-03-24T07:29:52.366560","MEAN_MOTION":15.75318254,"ECCENTRICITY":0.00015476,"INCLINATION":53.1579,"RA_OF_ASC_NODE":121.6385,"ARG_OF_PERICENTER":86.6939,"MEAN_ANOMALY":273.4258,"EPHEMERIS_TYPE":0,"CLASSIFICATION_TYPE":"U","NORAD_CAT_ID":68076,"ELEMENT_SET_NO":999,"REV_AT_EPOCH":439,"BSTAR":0.0010404375,"MEAN_MOTION_DOT":0.00162509,"MEAN_MOTION_DDOT":0},{"OBJECT_NAME":"STARLINK-37036","OBJECT_ID":"2026-042J","EPOCH":"2026-03-24T07:30:20.706624","MEAN_MOTION":15.75324437,"ECCENTRICITY":0.00018055,"INCLINATION":53.1574,"RA_OF_ASC_NODE":121.6404,"ARG_OF_PERICENTER":131.8766,"MEAN_ANOMALY":228.2409,"EPHEMERIS_TYPE":0,"CLASSIFICATION_TYPE":"U","NORAD_CAT_ID":68077,"ELEMENT_SET_NO":999,"REV_AT_EPOCH":439,"BSTAR":0.0010033196,"MEAN_MOTION_DOT":0.00156623,"MEAN_MOTION_DDOT":0},{"OBJECT_NAME":"STARLINK-36973","OBJECT_ID":"2026-042K","EPOCH":"2026-03-24T05:30:03.561696","MEAN_MOTION":15.81042723,"ECCENTRICITY":8.859e-5,"INCLINATION":53.1576,"RA_OF_ASC_NODE":121.8233,"ARG_OF_PERICENTER":111.4976,"MEAN_ANOMALY":248.6142,"EPHEMERIS_TYPE":0,"CLASSIFICATION_TYPE":"U","NORAD_CAT_ID":68078,"ELEMENT_SET_NO":999,"REV_AT_EPOCH":438,"BSTAR":0.0015766617,"MEAN_MOTION_DOT":0.00325022,"MEAN_MOTION_DDOT":0},{"OBJECT_NAME":"STARLINK-37063","OBJECT_ID":"2026-042L","EPOCH":"2026-03-24T07:02:10.750272","MEAN_MOTION":15.80965064,"ECCENTRICITY":8.444e-5,"INCLINATION":53.1577,"RA_OF_ASC_NODE":121.5113,"ARG_OF_PERICENTER":114.1502,"MEAN_ANOMALY":245.9609,"EPHEMERIS_TYPE":0,"CLASSIFICATION_TYPE":"U","NORAD_CAT_ID":68079,"ELEMENT_SET_NO":999,"REV_AT_EPOCH":439,"BSTAR":0.0008932842,"MEAN_MOTION_DOT":0.00180094,"MEAN_MOTION_DDOT":0}]
