STARLINK-36996          
1 68064U 26041AA  26082.99410472  .00241067  00000+0  11907-2 0  9990
2 68064  53.1595 350.2425 0001193  54.0791 306.0343 15.80881413  3488
STARLINK-36836          
1 68065U 26041AB  26083.24547154  .00454261  00000+0  21663-2 0  9990
2 68065  53.1587 348.9642 0000606  96.3547 263.7545 15.81069877  3522
STARLINK-36976          
1 68066U 26041AC  26083.20857248  .00248094  00000+0  15686-2 0  9998
2 68066  53.1584 349.4562 0000971  95.2277 264.8854 15.75341442  3518
STARLINK-36929          
1 68067U 26041AD  26083.02243632  .00194988  00000+0  12436-2 0  9997
2 68067  53.1590 350.4309 0001066 101.3693 258.7448 15.75302830  3489
STARLINK-36990          
1 68068U 26041AE  26082.99110350  .00334830  00000+0  16322-2 0  9993
2 68068  53.1592 350.2215 0000784 144.9843 215.1231 15.80910064  3489
STARLINK-36766          
1 68069U 26042A   26083.29993199  .00303823  00000+0  14789-2 0  9992
2 68069  53.1580 121.5577 0001082 119.3410 240.7721 15.81025834  4397
STARLINK-36823          
1 68070U 26042B   26083.23596264  .00307609  00000+0  14960-2 0  9997
2 68070  53.1576 121.8686 0001264  61.5157 298.5993 15.81034151  4389
STARLINK-36970          
1 68071U 26042C   26083.23446770  .00264950  00000+0  12980-2 0  9995
2 68071  53.1579 121.8589 0001331 123.1245 236.9905 15.80992708  4382
STARLINK-36972          
1 68072U 26042D   26083.23520519  .00100509  00000+0  50529-3 0  9991
2 68072  53.1575 121.8642 0001960  61.6831 298.4389 15.80939477  4387
STARLINK-37074          
1 68073U 26042E   26083.23371329  .00187529  00000+0  92925-3 0  9998
2 68073  53.1574 121.8540 0001133 140.2728 219.8378 15.80964260  4388
STARLINK-37045          
1 68074U 26042F   26083.25002315 -.00145559  00000+0 -95737-3 0  9990
2 68074  53.1593 121.9000 0001678  89.8469 300.1332 15.75341696  4397
STARLINK-37026          
1 68075U 26042G   26083.31760124  .00092862  00000+0  60207-3 0  9997
2 68075  53.1573 121.6736 0000868 105.3332 254.7784 15.75286692  4391
STARLINK-37023          
1 68076U 26042H   26083.31241165  .00162509  00000+0  10404-2 0  9996
2 68076  53.1579 121.6385 0001547  86.6939 273.4258 15.75318254  4391
STARLINK-37036          
1 68077U 26042J   26083.31273966  .00156623  00000+0  10033-2 0  9999
2 68077  53.1574 121.6404 0001805 131.8766 228.2409 15.75324437  4393
STARLINK-36973          
1 68078U 26042K   26083.22920789  .00325022  00000+0  15767-2 0  9992
2 68078  53.1576 121.8233 0000885 111.4976 248.6142 15.81042723  4383
STARLINK-37063          
1 68079U 26042L   26083.29317998  .00180094  00000+0  89328-3 0  9995
2 68079  53.1577 121.5113 0000844 114.1502 245.9609 15.80965064  4399
